{
  "type": "FeatureCollection",
  "features": [
    {
      "type": "Feature",
      "properties": {
        "norad_id": 29268,
        "name": "ARIRANG-2 (KOMPSAT-2)",
        "group": "resource",
        "lat": -0.05855942838893651,
        "lon": 172.84307756780768,
        "alt_km": 674.5737604584338,
        "timestamp": "2025-12-10T05:46:13.453613+00:00",
        "meta_object_name": "ARIRANG-2 (KOMPSAT-2)",
        "meta_object_id": "2006-031A",
        "meta_epoch": "2025-12-09T20:29:45.851424",
        "meta_mean_motion": 14.64489831,
        "meta_eccentricity": 0.001365,
        "meta_inclination": 97.826,
        "meta_ra_of_asc_node": 172.4676,
        "meta_arg_of_pericenter": 319.131,
        "meta_mean_anomaly": 164.7256,
        "meta_ephemeris_type": 0,
        "meta_classification_type": "U",
        "meta_norad_cat_id": 29268,
        "meta_element_set_no": 999,
        "meta_rev_at_epoch": 3376,
        "meta_bstar": 0.00013834,
        "meta_mean_motion_dot": 6.89e-06,
        "meta_mean_motion_ddot": 0,
        "tle_line1": "1 29268U 06031A   25343.85400291  .00000689  00000+0  13834-3 0  9997",
        "tle_line2": "2 29268  97.8260 172.4676 0013650 319.1310 164.7256 14.64489831 33765"
      },
      "geometry": {
        "type": "Point",
        "coordinates": [
          172.84307756780768,
          -0.05855942838893651
        ]
      }
    },
    {
      "type": "Feature",
      "properties": {
        "norad_id": 29709,
        "name": "LAPAN-TUBSAT",
        "group": "resource",
        "lat": 73.5861858916221,
        "lon": -176.64114214433462,
        "alt_km": 595.6167951630487,
        "timestamp": "2025-12-10T05:46:13.453623+00:00",
        "meta_object_name": "LAPAN-TUBSAT",
        "meta_object_id": "2007-001A",
        "meta_epoch": "2025-12-09T19:36:18.641088",
        "meta_mean_motion": 14.85665148,
        "meta_eccentricity": 0.0013721,
        "meta_inclination": 98.1257,
        "meta_ra_of_asc_node": 333.913,
        "meta_arg_of_pericenter": 82.6211,
        "meta_mean_anomaly": 277.6562,
        "meta_ephemeris_type": 0,
        "meta_classification_type": "U",
        "meta_norad_cat_id": 29709,
        "meta_element_set_no": 999,
        "meta_rev_at_epoch": 2303,
        "meta_bstar": 0.00016287,
        "meta_mean_motion_dot": 1.356e-05,
        "meta_mean_motion_ddot": 0,
        "tle_line1": "1 29709U 07001A   25343.81688242  .00001356  00000+0  16287-3 0  9992",
        "tle_line2": "2 29709  98.1257 333.9130 0013721  82.6211 277.6562 14.85665148 23038"
      },
      "geometry": {
        "type": "Point",
        "coordinates": [
          -176.64114214433462,
          73.5861858916221
        ]
      }
    },
    {
      "type": "Feature",
      "properties": {
        "norad_id": 31113,
        "name": "HAIYANG-1B",
        "group": "resource",
        "lat": 57.891894814558775,
        "lon": 162.12637791965386,
        "alt_km": 780.4457536391237,
        "timestamp": "2025-12-10T05:46:13.453641+00:00",
        "meta_object_name": "HAIYANG-1B",
        "meta_object_id": "2007-010A",
        "meta_epoch": "2025-12-09T20:49:01.643232",
        "meta_mean_motion": 14.30963669,
        "meta_eccentricity": 0.0014375,
        "meta_inclination": 98.3312,
        "meta_ra_of_asc_node": 328.2642,
        "meta_arg_of_pericenter": 45.9495,
        "meta_mean_anomaly": 314.287,
        "meta_ephemeris_type": 0,
        "meta_classification_type": "U",
        "meta_norad_cat_id": 31113,
        "meta_element_set_no": 999,
        "meta_rev_at_epoch": 97355,
        "meta_bstar": 0.00010677,
        "meta_mean_motion_dot": 2.39e-06,
        "meta_mean_motion_ddot": 0,
        "tle_line1": "1 31113U 07010A   25343.86738013  .00000239  00000+0  10677-3 0  9997",
        "tle_line2": "2 31113  98.3312 328.2642 0014375  45.9495 314.2870 14.30963669973551"
      },
      "geometry": {
        "type": "Point",
        "coordinates": [
          162.12637791965386,
          57.891894814558775
        ]
      }
    },
    {
      "type": "Feature",
      "properties": {
        "norad_id": 31598,
        "name": "COSMO-SKYMED 1",
        "group": "resource",
        "lat": -30.05922739094757,
        "lon": 174.2228381535943,
        "alt_km": 586.371302410731,
        "timestamp": "2025-12-10T05:46:13.453664+00:00",
        "meta_object_name": "COSMO-SKYMED 1",
        "meta_object_id": "2007-023A",
        "meta_epoch": "2025-12-09T20:16:21.325728",
        "meta_mean_motion": 14.9573006,
        "meta_eccentricity": 0.0001046,
        "meta_inclination": 97.8835,
        "meta_ra_of_asc_node": 169.2252,
        "meta_arg_of_pericenter": 83.6484,
        "meta_mean_anomaly": 276.4855,
        "meta_ephemeris_type": 0,
        "meta_classification_type": "U",
        "meta_norad_cat_id": 31598,
        "meta_element_set_no": 999,
        "meta_rev_at_epoch": 147,
        "meta_bstar": 0.00055295,
        "meta_mean_motion_dot": 6.103e-05,
        "meta_mean_motion_ddot": 0,
        "tle_line1": "1 31598U 07023A   25343.84469127  .00006103  00000+0  55295-3 0  9994",
        "tle_line2": "2 31598  97.8835 169.2252 0001046  83.6484 276.4855 14.95730060  1473"
      },
      "geometry": {
        "type": "Point",
        "coordinates": [
          174.2228381535943,
          -30.05922739094757
        ]
      }
    },
    {
      "type": "Feature",
      "properties": {
        "norad_id": 31698,
        "name": "TERRASAR-X",
        "group": "resource",
        "lat": 43.97717041325153,
        "lon": 176.9067115025808,
        "alt_km": 503.915246670962,
        "timestamp": "2025-12-10T05:46:13.453684+00:00",
        "meta_object_name": "TERRASAR-X",
        "meta_object_id": "2007-026A",
        "meta_epoch": "2025-12-09T11:47:13.204320",
        "meta_mean_motion": 15.19146544,
        "meta_eccentricity": 0.0001961,
        "meta_inclination": 97.4451,
        "meta_ra_of_asc_node": 348.9193,
        "meta_arg_of_pericenter": 86.8081,
        "meta_mean_anomaly": 273.3378,
        "meta_ephemeris_type": 0,
        "meta_classification_type": "U",
        "meta_norad_cat_id": 31698,
        "meta_element_set_no": 999,
        "meta_rev_at_epoch": 2442,
        "meta_bstar": 0.00012751,
        "meta_mean_motion_dot": 2.611e-05,
        "meta_mean_motion_ddot": 0,
        "tle_line1": "1 31698U 07026A   25343.49112505  .00002611  00000+0  12751-3 0  9994",
        "tle_line2": "2 31698  97.4451 348.9193 0001961  86.8081 273.3378 15.19146544 24429"
      },
      "geometry": {
        "type": "Point",
        "coordinates": [
          176.9067115025808,
          43.97717041325153
        ]
      }
    },
    {
      "type": "Feature",
      "properties": {
        "norad_id": 32060,
        "name": "WORLDVIEW-1 (WV-1)",
        "group": "resource",
        "lat": 82.1385104235665,
        "lon": 31.842070381592713,
        "alt_km": 483.9819433660141,
        "timestamp": "2025-12-10T05:46:13.453705+00:00",
        "meta_object_name": "WORLDVIEW-1 (WV-1)",
        "meta_object_id": "2007-041A",
        "meta_epoch": "2025-12-09T18:21:45.684576",
        "meta_mean_motion": 15.24610182,
        "meta_eccentricity": 7.28e-05,
        "meta_inclination": 97.3837,
        "meta_ra_of_asc_node": 101.2881,
        "meta_arg_of_pericenter": 104.1233,
        "meta_mean_anomaly": 256.0086,
        "meta_ephemeris_type": 0,
        "meta_classification_type": "U",
        "meta_norad_cat_id": 32060,
        "meta_element_set_no": 999,
        "meta_rev_at_epoch": 1402,
        "meta_bstar": 0.0005059,
        "meta_mean_motion_dot": 0.00012417,
        "meta_mean_motion_ddot": 0,
        "tle_line1": "1 32060U 07041A   25343.76511209  .00012417  00000+0  50590-3 0  9997",
        "tle_line2": "2 32060  97.3837 101.2881 0000728 104.1233 256.0086 15.24610182 14026"
      },
      "geometry": {
        "type": "Point",
        "coordinates": [
          31.842070381592713,
          82.1385104235665
        ]
      }
    },
    {
      "type": "Feature",
      "properties": {
        "norad_id": 32289,
        "name": "YAOGAN-3",
        "group": "resource",
        "lat": -51.552939958021454,
        "lon": -179.10272270618455,
        "alt_km": 606.3292019902547,
        "timestamp": "2025-12-10T05:46:13.453725+00:00",
        "meta_object_name": "YAOGAN-3",
        "meta_object_id": "2007-055A",
        "meta_epoch": "2025-12-09T20:40:19.149600",
        "meta_mean_motion": 14.89832088,
        "meta_eccentricity": 0.0001375,
        "meta_inclination": 97.8367,
        "meta_ra_of_asc_node": 10.5117,
        "meta_arg_of_pericenter": 72.4327,
        "meta_mean_anomaly": 287.7041,
        "meta_ephemeris_type": 0,
        "meta_classification_type": "U",
        "meta_norad_cat_id": 32289,
        "meta_element_set_no": 999,
        "meta_rev_at_epoch": 97766,
        "meta_bstar": 0.00014269,
        "meta_mean_motion_dot": 1.315e-05,
        "meta_mean_motion_ddot": 0,
        "tle_line1": "1 32289U 07055A   25343.86133275  .00001315  00000+0  14269-3 0  9997",
        "tle_line2": "2 32289  97.8367  10.5117 0001375  72.4327 287.7041 14.89832088977667"
      },
      "geometry": {
        "type": "Point",
        "coordinates": [
          -179.10272270618455,
          -51.552939958021454
        ]
      }
    }
  ]
}